#aV2022  3 31  0  0  0.00000000     288 DD+AD WGS84 FIT  NGA
## 2203 345600.00000000   300.00000000 59669 0.0000000000000
+   32     1  2  3  4  5  6  7  8  9 10 11 12 13 14 15 16 17
+         18 19 20 21 22 23 24 25 26 27 28 29 30 31 32  0  0
+          0  0  0  0  0  0  0  0  0  0  0  0  0  0  0  0  0
+          0  0  0  0  0  0  0  0  0  0  0  0  0  0  0  0  0
+          0  0  0  0  0  0  0  0  0  0  0  0  0  0  0  0  0
++         2  2  2  2  2  2  2  2  2  2  2  2  2  2  2  2  2
++         2  2  2  2  2  2  2  2  2  2  2  2  2  2  2  0  0
++         0  0  0  0  0  0  0  0  0  0  0  0  0  0  0  0  0
++         0  0  0  0  0  0  0  0  0  0  0  0  0  0  0  0  0
++         0  0  0  0  0  0  0  0  0  0  0  0  0  0  0  0  0
%c cc cc ccc ccc cccc cccc cccc cccc ccccc ccccc ccccc ccccc
%c cc cc ccc ccc cccc cccc cccc cccc ccccc ccccc ccccc ccccc
%f  0.0000000  0.000000000  0.00000000000  0.000000000000000
%f  0.0000000  0.000000000  0.00000000000  0.000000000000000
%i    0    0    0    0      0      0      0      0         0
%i    0    0    0    0      0      0      0      0         0
/*      NGA, ST. LOUIS,MO.                                  
/*   EPHEMERIS COMPUTED FROM 2 DAYS OF DATA                 
/*   EPOCHA v7 SMOOTHER                                     
/*   G2139 IERS2010 SATIGS SATAPC                           
*  2022  3 31 22 45  0.00000000
P  1  22011.300558  13587.913722   6508.629388    395.600352                    
V  1   5339.930220   6870.801966 -30688.399078     -0.088993                    
P  2 -11168.738501 -20041.123057  13912.212563   -652.808995                    
V  2  14602.642263   8188.028712  24834.507217     -0.003161                    
P  3  13530.647141   7443.613994  21518.854446   -187.830632                    
V  3  -5424.119217  26980.954257  -5784.441695     -0.159883                    
P  4  22729.097866   2747.100805  13543.747310   -179.514088                    
V  4 -15715.818288   7193.254893  24846.302397      0.029010                    
P  5  -6702.595309 -21663.069029 -13865.813857    -76.673237                    
V  5   4712.255291 -16901.737698  24559.896954     -0.013554                    
P  6   4082.627286 -15194.525803  21451.016558    250.621596                    
V  6  20816.608563  17240.240298   8352.601879      0.132595                    
P  7  19363.172556   -231.185175 -18000.481091    318.595145                    
V  7  16781.053331  16524.719721  16974.587391      0.015485                    
P  8  15354.812411   8954.500467 -19879.139347    -62.077924                    
V  8 -23108.763841   9716.777356 -13148.358958     -0.015386                    
P  9  25435.559345  -6677.773654   3776.978228   -346.552276                    
V  9  -3527.950887   4484.628308  31107.773100      0.022669                    
P 10 -11513.461998  20964.554736 -11082.901664   -364.391945                    
V 10    259.081090 -14570.995415 -27751.544662     -0.121572                    
P 11  -9691.281529 -21324.409771  12532.909657    -49.277966                    
V 11  13060.977370   9362.683886  26007.521515      0.081154                    
P 12 -11440.372131 -11959.804086  20531.984820   -193.415420                    
V 12   7517.745630 -25559.750635 -10439.221440     -0.057864                    
P 13  -6292.273488 -14010.061207 -21834.993381    286.318624                    
V 13  26701.767977  -5790.693805  -3845.000274      0.064025                    
P 14  13064.405481 -19877.694071 -11740.857329    -98.924102                    
V 14   -731.776331  15158.701424 -26567.015471     -0.031860                    
P 15 -16979.578756  -7685.135932 -19441.092891    -72.463694                    
V 15  20676.616241 -11938.680491 -13310.952107      0.029297                    
P 16   1117.097858  24016.807192 -11024.170539   -486.896495                    
V 16  -6102.521942  12559.180505  27870.039215     -0.040822                    
P 17  19287.651355 -14013.062138  12193.538066    594.517797                    
V 17  14661.173641  -2404.487898 -26860.251133      0.047866                    
P 18 -18989.560680    135.044618 -18617.168244    206.625029                    
V 18 -16770.262212 -16601.544539  16888.079354     -0.091399                    
P 19  13413.882104 -14953.662166  17013.926829    138.402421                    
V 19  21920.816605  -3541.307067 -20275.239233      0.049827                    
P 20  -2454.299247 -26211.186448  -4372.577577    516.045126                    
V 20   3296.383616  -5443.573337  30529.150301     -0.002011                    
P 21  20199.263096  17378.014423  -3143.191557    160.009526                    
V 21  -5187.259336   -893.708580 -30986.054846      0.003659                    
P 22  -9769.452793  16235.997027  18945.841716    236.220247                    
V 22 -22868.853610   4547.670816 -16218.468090      0.059303                    
P 23 -14926.610401  11167.452925 -18890.556978    -11.409435                    
V 23   2374.746937 -23903.850385 -16108.798157     -0.030242                    
P 24 -22315.312594 -14677.936768   1714.866925    262.223621                    
V 24    -96.887029  -4133.318967 -30806.193814     -0.043764                    
P 25 -15568.208744   3125.826631  20960.716046    305.912637                    
V 25   4023.607803 -27065.114038   7200.847470      0.050635                    
P 26  -4485.941401  25959.993089   1482.294505    195.179446                    
V 26  -3520.572399  -2484.310538  31360.388229      0.028899                    
P 27   3063.332654  14817.157446 -22011.969906    171.138563                    
V 27 -25990.641057   8826.934431   2735.262996      0.106348                    
P 28   9179.022608 -24810.610899  -2970.624627    374.471030                    
V 28   1120.091916   4869.448124 -31484.069120     -0.015271                    
P 29 -25855.424417   3464.679842   5113.270330   -497.887168                    
V 29   5765.480727  -3696.795903  31293.431015     -0.043605                    
P 30  13451.427493  -8813.769889 -21091.765204   -521.589192                    
V 30  19916.054625  18259.756910   4805.202302     -0.018682                    
P 31  -2434.002689  16896.678012  20099.024416   -171.423581                    
V 31 -20214.765974 -16326.488621  11664.100496     -0.017039                    
P 32 -16137.315424  16053.665800  13665.198802    -95.984829                    
V 32 -16975.607115   3643.342948 -24764.173267     -0.077513                    
EOF
